{
  "type": "FeatureCollection",
  "features": [
    {
      "type": "Feature",
      "properties": {
        "norad_id": 50032,
        "name": "COSMOS 1408 DEB",
        "group": "cosmos-1408-debris",
        "lat": -31.950810430124335,
        "lon": 45.904083053916345,
        "alt_km": 444.5064232944651,
        "timestamp": "2025-12-20T11:30:28.647695+00:00",
        "meta_object_name": "COSMOS 1408 DEB",
        "meta_object_id": "1982-092RU",
        "meta_epoch": "2025-12-19T10:47:21.279840",
        "meta_mean_motion": 15.45758238,
        "meta_eccentricity": 0.0015906,
        "meta_inclination": 82.564,
        "meta_ra_of_asc_node": 51.6321,
        "meta_arg_of_pericenter": 183.3939,
        "meta_mean_anomaly": 176.7205,
        "meta_ephemeris_type": 0,
        "meta_classification_type": "U",
        "meta_norad_cat_id": 50032,
        "meta_element_set_no": 999,
        "meta_rev_at_epoch": 22707,
        "meta_bstar": 8.1598e-05,
        "meta_mean_motion_dot": 4.006e-05,
        "meta_mean_motion_ddot": 0,
        "tle_line1": "1 50032U 82092RU  25353.44955185  .00004006  00000+0  81598-4 0  9994",
        "tle_line2": "2 50032  82.5640  51.6321 0015906 183.3939 176.7205 15.45758238227076"
      },
      "geometry": {
        "type": "Point",
        "coordinates": [
          45.904083053916345,
          -31.950810430124335
        ]
      }
    },
    {
      "type": "Feature",
      "properties": {
        "norad_id": 50058,
        "name": "COSMOS 1408 DEB",
        "group": "cosmos-1408-debris",
        "lat": -32.89748210753831,
        "lon": 56.425016499649395,
        "alt_km": 383.57436841144863,
        "timestamp": "2025-12-20T11:30:28.647717+00:00",
        "meta_object_name": "COSMOS 1408 DEB",
        "meta_object_id": "1982-092SW",
        "meta_epoch": "2025-12-18T13:35:52.596672",
        "meta_mean_motion": 15.6444692,
        "meta_eccentricity": 0.00161966,
        "meta_inclination": 82.6131,
        "meta_ra_of_asc_node": 63.2424,
        "meta_arg_of_pericenter": 78.9589,
        "meta_mean_anomaly": 281.3491,
        "meta_ephemeris_type": 0,
        "meta_classification_type": "U",
        "meta_norad_cat_id": 50058,
        "meta_element_set_no": 999,
        "meta_rev_at_epoch": 22895,
        "meta_bstar": 0.00028591151,
        "meta_mean_motion_dot": 0.00027692,
        "meta_mean_motion_ddot": 0,
        "tle_line1": "1 50058U 82092SW  25352.56658098  .00027692  00000+0  28591-3 0  9996",
        "tle_line2": "2 50058  82.6131  63.2424 0016196  78.9589 281.3491 15.64446920228956"
      },
      "geometry": {
        "type": "Point",
        "coordinates": [
          56.425016499649395,
          -32.89748210753831
        ]
      }
    },
    {
      "type": "Feature",
      "properties": {
        "norad_id": 50404,
        "name": "COSMOS 1408 DEB",
        "group": "cosmos-1408-debris",
        "lat": 52.58377238334827,
        "lon": 16.78819562193924,
        "alt_km": 433.9797919734856,
        "timestamp": "2025-12-20T11:30:28.647730+00:00",
        "meta_object_name": "COSMOS 1408 DEB",
        "meta_object_id": "1982-092ADS",
        "meta_epoch": "2025-12-19T14:20:11.624064",
        "meta_mean_motion": 15.1481285,
        "meta_eccentricity": 0.0169261,
        "meta_inclination": 82.2053,
        "meta_ra_of_asc_node": 208.0078,
        "meta_arg_of_pericenter": 175.439,
        "meta_mean_anomaly": 184.8437,
        "meta_ephemeris_type": 0,
        "meta_classification_type": "U",
        "meta_norad_cat_id": 50404,
        "meta_element_set_no": 999,
        "meta_rev_at_epoch": 21297,
        "meta_bstar": 0.0021779,
        "meta_mean_motion_dot": 0.0005852,
        "meta_mean_motion_ddot": 0,
        "tle_line1": "1 50404U 82092ADS 25353.59735676  .00058520  00000+0  21779-2 0  9997",
        "tle_line2": "2 50404  82.2053 208.0078 0169261 175.4390 184.8437 15.14812850212975"
      },
      "geometry": {
        "type": "Point",
        "coordinates": [
          16.78819562193924,
          52.58377238334827
        ]
      }
    },
    {
      "type": "Feature",
      "properties": {
        "norad_id": 50621,
        "name": "COSMOS 1408 DEB",
        "group": "cosmos-1408-debris",
        "lat": 43.88949286005335,
        "lon": -121.09012497335127,
        "alt_km": 373.2955941480477,
        "timestamp": "2025-12-20T11:30:28.647742+00:00",
        "meta_object_name": "COSMOS 1408 DEB",
        "meta_object_id": "1982-092ALR",
        "meta_epoch": "2025-12-19T22:35:23.224128",
        "meta_mean_motion": 15.57015265,
        "meta_eccentricity": 0.0029104,
        "meta_inclination": 82.57,
        "meta_ra_of_asc_node": 66.6825,
        "meta_arg_of_pericenter": 126.3285,
        "meta_mean_anomaly": 234.0664,
        "meta_ephemeris_type": 0,
        "meta_classification_type": "U",
        "meta_norad_cat_id": 50621,
        "meta_element_set_no": 999,
        "meta_rev_at_epoch": 22362,
        "meta_bstar": 0.00024847,
        "meta_mean_motion_dot": 0.00018347,
        "meta_mean_motion_ddot": 0,
        "tle_line1": "1 50621U 82092ALR 25353.94124102  .00018347  00000+0  24847-3 0  9996",
        "tle_line2": "2 50621  82.5700  66.6825 0029104 126.3285 234.0664 15.57015265223621"
      },
      "geometry": {
        "type": "Point",
        "coordinates": [
          -121.09012497335127,
          43.88949286005335
        ]
      }
    }
  ]
}